start=new Date('2022-09-21T00:00:00.000Z').valueOf();
sats=[{"OBJECT_TYPE":"PAYLOAD","NORAD_CAT_ID":"47659","RA_OF_ASC_NODE":"234.6271","CLASSIFICATION_TYPE":"U","DECAY_DATE":null,"MEAN_ANOMALY":"276.4638","BSTAR":"0.00009458100000","TLE_LINE2":"2 47659  53.0534 234.6271 0001572  83.6530 276.4638 15.06382701 90837","EPHEMERIS_TYPE":"0","LAUNCH_DATE":"2021-02-16","REV_AT_EPOCH":"9083","RCS_SIZE":"LARGE","EPOCH":"2022-09-20T18:08:15.352800","APOAPSIS":"548.355","MEAN_MOTION_DDOT":"0.0000000000000","TIME_SYSTEM":"UTC","FILE":"3578945","MEAN_MOTION":"15.06382701","ELEMENT_SET_NO":"999","INCLINATION":"53.0534","REF_FRAME":"TEME","CENTER_NAME":"EARTH","OBJECT_NAME":"STARLINK-2043","ARG_OF_PERICENTER":"83.6530","OBJECT_ID":"2021-012AR","TLE_LINE1":"1 47659U 21012AR  22263.75573325  .00001127  00000-0  94581-4 0  9991","SITE":"AFETR","GP_ID":"213122781","PERIAPSIS":"546.178","ECCENTRICITY":"0.00015720","COUNTRY_CODE":"US","MEAN_MOTION_DOT":"0.00001127","MEAN_ELEMENT_THEORY":"SGP4","SEMIMAJOR_AXIS":"6925.402","PERIOD":"95.593"},{"PERIAPSIS":"546.303","GP_ID":"213071042","MEAN_ELEMENT_THEORY":"SGP4","SEMIMAJOR_AXIS":"6925.353","PERIOD":"95.592","MEAN_MOTION_DOT":"0.00000714","ECCENTRICITY":"0.00013220","COUNTRY_CODE":"US","OBJECT_NAME":"STARLINK-2044","ARG_OF_PERICENTER":"70.6168","OBJECT_ID":"2021-012AS","TLE_LINE1":"1 47660U 21012AS  22263.31073351  .00000714  00000-0  66832-4 0  9998","CENTER_NAME":"EARTH","REF_FRAME":"TEME","SITE":"AFETR","RCS_SIZE":"LARGE","APOAPSIS":"548.134","EPOCH":"2022-09-20T07:27:27.375264","MEAN_MOTION_DDOT":"0.0000000000000","TIME_SYSTEM":"UTC","INCLINATION":"53.0519","ELEMENT_SET_NO":"999","FILE":"3578736","MEAN_MOTION":"15.06398398","TLE_LINE2":"2 47660  53.0519 227.2499 0001322  70.6168 289.4963 15.06398398 90900","BSTAR":"0.00006683200000","DECAY_DATE":null,"MEAN_ANOMALY":"289.4963","NORAD_CAT_ID":"47660","OBJECT_TYPE":"PAYLOAD","RA_OF_ASC_NODE":"227.2499","CLASSIFICATION_TYPE":"U","EPHEMERIS_TYPE":"0","LAUNCH_DATE":"2021-02-16","REV_AT_EPOCH":"9090"},{"SITE":"AFETR","ARG_OF_PERICENTER":"55.8886","OBJECT_NAME":"STARLINK-2051","TLE_LINE1":"1 47661U 21012AT  22263.62857512 -.00003553  00000-0 -21971-3 0  9992","OBJECT_ID":"2021-012AT","CENTER_NAME":"EARTH","REF_FRAME":"TEME","MEAN_ELEMENT_THEORY":"SGP4","SEMIMAJOR_AXIS":"6925.352","PERIOD":"95.592","MEAN_MOTION_DOT":"-0.00003553","ECCENTRICITY":"0.00018340","COUNTRY_CODE":"US","PERIAPSIS":"545.947","GP_ID":"213122280","EPHEMERIS_TYPE":"0","LAUNCH_DATE":"2021-02-16","REV_AT_EPOCH":"8942","TLE_LINE2":"2 47661  53.0560 335.1957 0001834  55.8886 304.2277 15.06398786 89425","BSTAR":"-0.00021971000000","DECAY_DATE":null,"MEAN_ANOMALY":"304.2277","OBJECT_TYPE":"PAYLOAD","RA_OF_ASC_NODE":"335.1957","NORAD_CAT_ID":"47661","CLASSIFICATION_TYPE":"U","INCLINATION":"53.0560","ELEMENT_SET_NO":"999","FILE":"3578945","MEAN_MOTION":"15.06398786","EPOCH":"2022-09-20T15:05:08.890368","RCS_SIZE":"LARGE","APOAPSIS":"548.487","MEAN_MOTION_DDOT":"0.0000000000000","TIME_SYSTEM":"UTC"},{"ELEMENT_SET_NO":"999","FILE":"3578736","MEAN_MOTION":"15.06400004","INCLINATION":"53.0546","APOAPSIS":"548.178","RCS_SIZE":"LARGE","EPOCH":"2022-09-20T11:26:09.395232","MEAN_MOTION_DDOT":"0.0000000000000","TIME_SYSTEM":"UTC","EPHEMERIS_TYPE":"0","LAUNCH_DATE":"2021-02-16","REV_AT_EPOCH":"8942","DECAY_DATE":null,"MEAN_ANOMALY":"288.5496","RA_OF_ASC_NODE":"335.8837","OBJECT_TYPE":"PAYLOAD","NORAD_CAT_ID":"47662","CLASSIFICATION_TYPE":"U","TLE_LINE2":"2 47662  53.0546 335.8837 0001393  71.5644 288.5496 15.06400004 89425","BSTAR":"0.00006444400000","MEAN_MOTION_DOT":"0.00000679","ECCENTRICITY":"0.00013930","COUNTRY_CODE":"US","SEMIMAJOR_AXIS":"6925.349","MEAN_ELEMENT_THEORY":"SGP4","PERIOD":"95.592","GP_ID":"213070042","PERIAPSIS":"546.249","SITE":"AFETR","REF_FRAME":"TEME","OBJECT_NAME":"STARLINK-2052","ARG_OF_PERICENTER":"71.5644","TLE_LINE1":"1 47662U 21012AU  22263.47649763  .00000679  00000-0  64444-4 0  9990","OBJECT_ID":"2021-012AU","CENTER_NAME":"EARTH"},{"PERIAPSIS":"546.010","GP_ID":"213070292","SEMIMAJOR_AXIS":"6925.322","MEAN_ELEMENT_THEORY":"SGP4","PERIOD":"95.592","MEAN_MOTION_DOT":"-0.00002434","ECCENTRICITY":"0.00016990","COUNTRY_CODE":"US","OBJECT_NAME":"STARLINK-2053","ARG_OF_PERICENTER":"82.1375","TLE_LINE1":"1 47663U 21012AV  22263.40744691 -.00002434  00000-0 -14454-3 0  9998","OBJECT_ID":"2021-012AV","CENTER_NAME":"EARTH","REF_FRAME":"TEME","SITE":"AFETR","RCS_SIZE":"LARGE","TIME_SYSTEM":"UTC","APOAPSIS":"548.363","MEAN_MOTION_DDOT":"0.0000000000000","EPOCH":"2022-09-20T09:46:43.413024","INCLINATION":"53.0537","ELEMENT_SET_NO":"999","FILE":"3578736","MEAN_MOTION":"15.06408786","TLE_LINE2":"2 47663  53.0537 256.4875 0001699  82.1375 277.9807 15.06408786 90520","BSTAR":"-0.00014454000000","DECAY_DATE":null,"MEAN_ANOMALY":"277.9807","OBJECT_TYPE":"PAYLOAD","RA_OF_ASC_NODE":"256.4875","NORAD_CAT_ID":"47663","CLASSIFICATION_TYPE":"U","EPHEMERIS_TYPE":"0","LAUNCH_DATE":"2021-02-16","REV_AT_EPOCH":"9052"},{"RCS_SIZE":"LARGE","MEAN_MOTION_DDOT":"0.0000000000000","APOAPSIS":"548.341","EPOCH":"2022-09-20T14:38:36.096864","TIME_SYSTEM":"UTC","INCLINATION":"53.0552","FILE":"3578945","MEAN_MOTION":"15.06398270","ELEMENT_SET_NO":"999","BSTAR":"0.00013943000000","TLE_LINE2":"2 47664  53.0552 335.2851 0001620  83.3182 276.7991 15.06398270 89447","OBJECT_TYPE":"PAYLOAD","RA_OF_ASC_NODE":"335.2851","NORAD_CAT_ID":"47664","CLASSIFICATION_TYPE":"U","DECAY_DATE":null,"MEAN_ANOMALY":"276.7991","EPHEMERIS_TYPE":"0","LAUNCH_DATE":"2021-02-16","REV_AT_EPOCH":"8944","PERIAPSIS":"546.097","GP_ID":"213122030","MEAN_ELEMENT_THEORY":"SGP4","SEMIMAJOR_AXIS":"6925.354","PERIOD":"95.592","ECCENTRICITY":"0.00016200","COUNTRY_CODE":"US","MEAN_MOTION_DOT":"0.00001796","CENTER_NAME":"EARTH","OBJECT_NAME":"STARLINK-2054","ARG_OF_PERICENTER":"83.3182","OBJECT_ID":"2021-012AW","TLE_LINE1":"1 47664U 21012AW  22263.61014001  .00001796  00000-0  13943-3 0  9997","REF_FRAME":"TEME","SITE":"AFETR"},{"SITE":"AFETR","TLE_LINE1":"1 47665U 21012AX  22263.45764646  .00001059  00000-0  89958-4 0  9999","OBJECT_ID":"2021-012AX","ARG_OF_PERICENTER":"85.4868","OBJECT_NAME":"STARLINK-2056","CENTER_NAME":"EARTH","REF_FRAME":"TEME","PERIOD":"95.592","SEMIMAJOR_AXIS":"6925.363","MEAN_ELEMENT_THEORY":"SGP4","MEAN_MOTION_DOT":"0.00001059","COUNTRY_CODE":"US","ECCENTRICITY":"0.00012540","PERIAPSIS":"546.359","GP_ID":"213071281","REV_AT_EPOCH":"8948","LAUNCH_DATE":"2021-02-16","EPHEMERIS_TYPE":"0","TLE_LINE2":"2 47665  53.0555 331.0159 0001254  85.4868 274.6265 15.06395419 89480","BSTAR":"0.00008995800000","MEAN_ANOMALY":"274.6265","DECAY_DATE":null,"CLASSIFICATION_TYPE":"U","OBJECT_TYPE":"PAYLOAD","RA_OF_ASC_NODE":"331.0159","NORAD_CAT_ID":"47665","INCLINATION":"53.0555","ELEMENT_SET_NO":"999","MEAN_MOTION":"15.06395419","FILE":"3578736","APOAPSIS":"548.096","RCS_SIZE":"LARGE","MEAN_MOTION_DDOT":"0.0000000000000","EPOCH":"2022-09-20T10:59:00.654144","TIME_SYSTEM":"UTC"},{"SITE":"AFETR","REF_FRAME":"TEME","CENTER_NAME":"EARTH","TLE_LINE1":"1 47666U 21012AY  22263.18860535  .00000147  00000-0  28769-4 0  9994","OBJECT_ID":"2021-012AY","OBJECT_NAME":"STARLINK-2057","ARG_OF_PERICENTER":"73.0252","COUNTRY_CODE":"US","ECCENTRICITY":"0.00014170","MEAN_MOTION_DOT":"0.00000147","PERIOD":"95.592","SEMIMAJOR_AXIS":"6925.349","MEAN_ELEMENT_THEORY":"SGP4","GP_ID":"213069543","PERIAPSIS":"546.233","REV_AT_EPOCH":"8944","LAUNCH_DATE":"2021-02-16","EPHEMERIS_TYPE":"0","CLASSIFICATION_TYPE":"U","NORAD_CAT_ID":"47666","OBJECT_TYPE":"PAYLOAD","RA_OF_ASC_NODE":"332.5198","MEAN_ANOMALY":"287.0893","DECAY_DATE":null,"BSTAR":"0.00002876900000","TLE_LINE2":"2 47666  53.0560 332.5198 0001417  73.0252 287.0893 15.06399890 89445","MEAN_MOTION":"15.06399890","FILE":"3578736","ELEMENT_SET_NO":"999","INCLINATION":"53.0560","RCS_SIZE":"LARGE","APOAPSIS":"548.195","MEAN_MOTION_DDOT":"0.0000000000000","TIME_SYSTEM":"UTC","EPOCH":"2022-09-20T04:31:35.502240"},{"APOAPSIS":"548.214","RCS_SIZE":"LARGE","MEAN_MOTION_DDOT":"0.0000000000000","EPOCH":"2022-09-20T18:34:48.101376","TIME_SYSTEM":"UTC","INCLINATION":"53.0559","ELEMENT_SET_NO":"999","FILE":"3578945","MEAN_MOTION":"15.06393795","TLE_LINE2":"2 47667  53.0559 354.5444 0001417  68.8230 291.2910 15.06393795 89164","BSTAR":"0.00004445000000","DECAY_DATE":null,"MEAN_ANOMALY":"291.2910","NORAD_CAT_ID":"47667","OBJECT_TYPE":"PAYLOAD","RA_OF_ASC_NODE":"354.5444","CLASSIFICATION_TYPE":"U","EPHEMERIS_TYPE":"0","LAUNCH_DATE":"2021-02-16","REV_AT_EPOCH":"8916","PERIAPSIS":"546.251","GP_ID":"213122782","SEMIMAJOR_AXIS":"6925.368","MEAN_ELEMENT_THEORY":"SGP4","PERIOD":"95.593","MEAN_MOTION_DOT":"0.00000381","ECCENTRICITY":"0.00014170","COUNTRY_CODE":"US","ARG_OF_PERICENTER":"68.8230","OBJECT_NAME":"STARLINK-2058","OBJECT_ID":"2021-012AZ","TLE_LINE1":"1 47667U 21012AZ  22263.77416784  .00000381  00000-0  44450-4 0  9998","CENTER_NAME":"EARTH","REF_FRAME":"TEME","SITE":"AFETR"},{"CENTER_NAME":"EARTH","OBJECT_NAME":"STARLINK-2059","ARG_OF_PERICENTER":"79.0343","OBJECT_ID":"2021-012BA","TLE_LINE1":"1 47668U 21012BA  22263.61754015 -.00002997  00000-0 -18249-3 0  9997","REF_FRAME":"TEME","SITE":"AFETR","PERIAPSIS":"546.026","GP_ID":"213121531","SEMIMAJOR_AXIS":"6925.422","MEAN_ELEMENT_THEORY":"SGP4","PERIOD":"95.594","ECCENTRICITY":"0.00018210","COUNTRY_CODE":"US","MEAN_MOTION_DOT":"-0.00002997","BSTAR":"-0.00018249000000","TLE_LINE2":"2 47668  53.0567 335.2342 0001821  79.0343 281.0850 15.06375995 89448","NORAD_CAT_ID":"47668","OBJECT_TYPE":"PAYLOAD","RA_OF_ASC_NODE":"335.2342","CLASSIFICATION_TYPE":"U","DECAY_DATE":null,"MEAN_ANOMALY":"281.0850","LAUNCH_DATE":"2021-02-16","EPHEMERIS_TYPE":"0","REV_AT_EPOCH":"8944","MEAN_MOTION_DDOT":"0.0000000000000","RCS_SIZE":"LARGE","APOAPSIS":"548.548","EPOCH":"2022-09-20T14:49:15.468960","TIME_SYSTEM":"UTC","INCLINATION":"53.0567","FILE":"3578945","MEAN_MOTION":"15.06375995","ELEMENT_SET_NO":"999"}];
